NORAD_CAT_ID,OBJECT_NAME,OBJECT_TYPE,EPOCH,MEAN_MOTION,ECCENTRICITY,INCLINATION,RA_OF_ASC_NODE,ARG_OF_PERICENTER,MEAN_ANOMALY,BSTAR,MEAN_MOTION_DOT,MEAN_MOTION_DDOT,TLE_LINE0,TLE_LINE1,TLE_LINE2,SEMIMAJOR_AXIS,PERIOD,APOGEE,PERIGEE,DECAYED
49446.0,STARLINK-3099,PAYLOAD,2022-11-13 03:39:30,15.08856243,0.0001907,53.2155,252.4191,37.8423,322.2703,5.4029e-05,5.72e-06,0.0,0 STARLINK-3099,1 49446U 21104AQ  22317.15244193  .00000572  00000-0  54029-4 0  9997,2 49446  53.2155 252.4191 0001907  37.8423 322.2703 15.08856243 56932,6917.831,95.437,541.015,538.377,0.0
49446.0,STARLINK-3099,PAYLOAD,2022-11-14 01:54:56,15.08826858,0.0001895,53.2155,248.2538,52.358,307.7584,-0.00010046,-1.886e-05,0.0,0 STARLINK-3099,1 49446U 21104AQ  22318.07981517 -.00001886  00000-0 -10046-3 0  9998,2 49446  53.2155 248.2538 0001895  52.3580 307.7584 15.08826858 57072,6917.920999999999,95.438,541.097,538.475,0.0
49446.0,STARLINK-3099,PAYLOAD,2022-11-14 13:02:38,15.0882733,0.0001959,53.2165,246.1722,54.8487,305.2688,0.00020521,2.978e-05,0.0,0 STARLINK-3099,1 49446U 21104AQ  22318.54350036  .00002978  00000-0  20521-3 0  9996,2 49446  53.2165 246.1722 0001959  54.8487 305.2688 15.08827330 56072,6917.919,95.438,541.139,538.429,0.0
49446.0,STARLINK-3099,PAYLOAD,2022-11-14 22:34:56,15.08839592,0.000207,53.2159,244.3897,43.0919,317.0235,0.00018305,2.626e-05,0.0,0 STARLINK-3099,1 49446U 21104AQ  22318.94093707  .00002626  00000-0  18305-3 0  9996,2 49446  53.2159 244.3897 0002070  43.0919 317.0235 15.08839592 57201,6917.882,95.438,541.179,538.315,0.0
49446.0,STARLINK-3099,PAYLOAD,2022-11-15 04:56:33,15.08694842,0.0002755,53.2172,243.1989,70.4499,289.6790000000001,0.0026373,0.00041768,0.0,0 STARLINK-3099,1 49446U 21104AQ  22319.20594547  .00041768  00000-0  26373-2 0  9997,2 49446  53.2172 243.1989 0002755  70.4499 289.6790 15.08694842 57243,6918.324000000001,95.447,542.095,538.283,0.0
49446.0,STARLINK-3099,PAYLOAD,2022-11-15 09:42:38,15.08843529,0.0001876,53.2159,242.3045,57.4079,302.7095,0.00018234,2.615e-05,0.0,0 STARLINK-3099,1 49446U 21104AQ  22319.40461378  .00002615  00000-0  18234-3 0  9990,2 49446  53.2159 242.3045 0001876  57.4079 302.7095 15.08843529 56202,6917.87,95.437,541.0319999999998,538.437,0.0
49446.0,STARLINK-3099,PAYLOAD,2022-11-16 04:47:16,15.08834427,0.0002069,53.2163,238.7383,49.8612,310.2561,0.00012203,1.654e-05,0.0,0 STARLINK-3099,1 49446U 21104AQ  22320.19950123  .00001654  00000-0  12203-3 0  9991,2 49446  53.2163 238.7383 0002069  49.8612 310.2561 15.08834427 57394,6917.897,95.438,541.194,538.331,0.0
49446.0,STARLINK-3099,PAYLOAD,2022-11-16 11:08:49,15.088393300000002,0.0001796,53.2173,237.5494,50.8272,309.288,0.00014656,2.045e-05,0.0,0 STARLINK-3099,1 49446U 21104AQ  22320.46445681  .00002045  00000-0  14656-3 0  9998,2 49446  53.2173 237.5494 0001796  50.8272 309.2880 15.08839330 56361,6917.882,95.438,540.99,538.505,0.0
49446.0,STARLINK-3099,PAYLOAD,2022-11-17 04:38:04,15.08831612,0.0001926,53.2169,234.279,49.3136,310.8024,-0.00010888,-2.02e-05,0.0,0 STARLINK-3099,1 49446U 21104AQ  22321.19310775 -.00002020  00000-0 -10888-3 0  9992,2 49446  53.2169 234.2790 0001926  49.3136 310.8024 15.08831612 57540,6917.906,95.438,541.1030000000002,538.439,0.0
49446.0,STARLINK-3099,PAYLOAD,2022-11-18 10:50:23,15.08840472,0.0001948,53.217,228.629,51.2429,308.8737,9.4292e-05,1.213e-05,0.0,0 STARLINK-3099,1 49446U 21104AQ  22322.45166303  .00001213  00000-0  94292-4 0  9991,2 49446  53.2170 228.6290 0001948  51.2429 308.8737 15.08840472 57738,6917.879,95.438,541.092,538.396,0.0
49446.0,STARLINK-3099,PAYLOAD,2022-11-19 02:44:14,15.08846795,0.0002054,53.2168,225.6551,47.8985,312.2182,0.00021018,3.059e-05,0.0,0 STARLINK-3099,1 49446U 21104AQ  22323.11405574  .00003059  00000-0  21018-3 0  9996,2 49446  53.2168 225.6551 0002054  47.8985 312.2182 15.08846795 57837,6917.86,95.437,541.146,538.304,0.0
49446.0,STARLINK-3099,PAYLOAD,2022-11-19 10:41:10,15.08839675,0.0002133,53.2166,224.1665,48.3154,311.8021,0.00024252,3.574e-05,0.0,0 STARLINK-3099,1 49446U 21104AQ  22323.44526174  .00003574  00000-0  24252-3 0  9997,2 49446  53.2166 224.1665 0002133  48.3154 311.8021 15.08839675 56810,6917.880999999999,95.438,541.222,538.271,0.0
49446.0,STARLINK-3099,PAYLOAD,2022-11-20 10:31:57,15.08850702,0.0001971,53.2156,219.7078,50.5199,309.5967,0.00011263,1.505e-05,0.0,0 STARLINK-3099,1 49446U 21104AQ  22324.43885475  .00001505  00000-0  11263-3 0  9999,2 49446  53.2156 219.7078 0001971  50.5199 309.5967 15.08850702 56963,6917.848000000001,95.437,541.076,538.349,0.0
49446.0,STARLINK-3099,PAYLOAD,2022-11-21 02:25:48,15.08847161,0.0002159,53.2157,216.7342,52.7908,307.328,-7.146e-05,-1.426e-05,0.0,0 STARLINK-3099,1 49446U 21104AQ  22325.10125830 -.00001426  00000-0 -71460-4 0  9996,2 49446  53.2157 216.7342 0002159  52.7908 307.3280 15.08847161 58136,6917.859,95.437,541.217,538.23,0.0
49446.0,STARLINK-3099,PAYLOAD,2022-11-21 19:55:03,15.08839588,0.0002131,53.2159,213.4623,56.793,303.3267,9.4098e-05,1.21e-05,0.0,0 STARLINK-3099,1 49446U 21104AQ  22325.82989742  .00001210  00000-0  94098-4 0  9996,2 49446  53.2159 213.4623 0002131  56.7930 303.3267 15.08839588 57171,6917.882,95.438,541.221,538.2719999999998,0.0
49446.0,STARLINK-3099,PAYLOAD,2022-11-22 02:16:35,15.08842749,0.0002055,53.216,212.273,54.1411,305.9772,3.5047e-07,-2.83e-06,0.0,0 STARLINK-3099,1 49446U 21104AQ  22326.09485687 -.00000283  00000-0  35047-6 0  9996,2 49446  53.2160 212.2730 0002055  54.1411 305.9772 15.08842749 57217,6917.871999999999,95.437,541.159,538.315,0.0
49446.0,STARLINK-3099,PAYLOAD,2022-11-22 19:45:49,15.08840241,0.0002019,53.2161,209.0024,50.851000000000006,309.2661,7.959300000000001e-05,9.79e-06,0.0,0 STARLINK-3099,1 49446U 21104AQ  22326.82349426  .00000979  00000-0  79593-4 0  9990,2 49446  53.2161 209.0024 0002019  50.8510 309.2661 15.08840241 57322,6917.88,95.438,541.141,538.3480000000002,0.0
49446.0,STARLINK-3099,PAYLOAD,2022-11-23 02:07:22,15.08836556,0.000198,53.2165,207.8136,45.833,314.2825,1.108e-05,-1.12e-06,0.0,0 STARLINK-3099,1 49446U 21104AQ  22327.08845898 -.00000112  00000-0  11080-4 0  9990,2 49446  53.2165 207.8136 0001980  45.8330 314.2825 15.08836556 58431,6917.891,95.438,541.126,538.386,0.0
49446.0,STARLINK-3099,PAYLOAD,2022-11-23 16:25:51,15.08834157,0.0001952,53.2165,205.1372,45.2912,314.8238,2.8286e-05,1.62e-06,0.0,0 STARLINK-3099,1 49446U 21104AQ  22327.68462136  .00000162  00000-0  28286-4 0  9996,2 49446  53.2165 205.1372 0001952  45.2912 314.8238 15.08834157 57453,6917.898,95.438,541.114,538.413,0.0
49446.0,STARLINK-3099,PAYLOAD,2022-11-24 01:58:10,15.0882815,0.0001923,53.2164,203.3528,45.2091,314.9057,-2.5441e-05,-6.93e-06,0.0,0 STARLINK-3099,1 49446U 21104AQ  22328.08206817 -.00000693  00000-0 -25441-4 0  9994,2 49446  53.2164 203.3528 0001923  45.2091 314.9057 15.08828150 58582,6917.917,95.438,541.112,538.451,0.0
49446.0,STARLINK-3099,PAYLOAD,2022-11-24 16:16:39,15.08821614,0.0001887,53.2175,200.6757,46.9381,313.1769,0.00011876,1.602e-05,0.0,0 STARLINK-3099,1 49446U 21104AQ  22328.67822919  .00001602  00000-0  11876-3 0  9991,2 49446  53.2175 200.6757 0001887  46.9381 313.1769 15.08821614 57608,6917.937,95.439,541.107,538.496,0.0
49446.0,STARLINK-3099,PAYLOAD,2022-11-25 01:48:57,15.08834009,0.0001935,53.2166,198.8923,46.6634,313.4519,5.374100000000001e-05,5.67e-06,0.0,0 STARLINK-3099,1 49446U 21104AQ  22329.07566692  .00000567  00000-0  53741-4 0  9996,2 49446  53.2166 198.8923 0001935  46.6634 313.4519 15.08834009 58736,6917.899,95.438,541.102,538.425,0.0
49446.0,STARLINK-3099,PAYLOAD,2022-11-25 19:18:11,15.08838637,0.000195,53.2166,195.6213,47.6151,312.5006,0.00016632,2.36e-05,0.0,0 STARLINK-3099,1 49446U 21104AQ  22329.80430270  .00002360  00000-0  16632-3 0  9999,2 49446  53.2166 195.6213 0001950  47.6151 312.5006 15.08838637 57770,6917.885,95.438,541.099,538.401,0.0
49446.0,STARLINK-3099,PAYLOAD,2022-11-26 00:04:20,15.08842882,0.000198,53.2164,194.7293,48.477,311.6392,0.00019924,2.884e-05,0.0,0 STARLINK-3099,1 49446U 21104AQ  22330.00301982  .00002884  00000-0  19924-3 0  9998,2 49446  53.2164 194.7293 0001980  48.4770 311.6392 15.08842882 58872,6917.871999999999,95.437,541.106,538.367,0.0
49446.0,STARLINK-3099,PAYLOAD,2022-11-26 14:22:48,15.08848692,0.0002018,53.2163,192.0529,49.2424,310.8743,0.0001892,2.725e-05,0.0,0 STARLINK-3099,1 49446U 21104AQ  22330.59917505  .00002725  00000-0  18920-3 0  9995,2 49446  53.2163 192.0529 0002018  49.2424 310.8743 15.08848692 57899,6917.854,95.437,541.115,538.323,0.0
49446.0,STARLINK-3099,PAYLOAD,2022-11-27 07:52:03,15.08840077,0.0002031,53.2164,188.7816,47.9564,312.16,2.8601e-05,1.67e-06,0.0,0 STARLINK-3099,1 49446U 21104AQ  22331.32782328  .00000167  00000-0  28601-4 0  9996,2 49446  53.2164 188.7816 0002031  47.9564 312.1600 15.08840077 59074,6917.88,95.438,541.15,538.34,0.0
49446.0,STARLINK-3099,PAYLOAD,2022-11-27 20:35:09,15.08840796,0.0002067,53.2161,186.4026,49.7316,310.3857,-6.2871e-05,-1.289e-05,0.0,0 STARLINK-3099,1 49446U 21104AQ  22331.85774498 -.00001289  00000-0 -62871-4 0  9998,2 49446  53.2161 186.4026 0002067  49.7316 310.3857 15.08840796 58085,6917.878000000002,95.438,541.173,538.313,0.0
49446.0,STARLINK-3099,PAYLOAD,2022-11-28 14:04:23,15.08839719,0.000204,53.2158,183.132,49.2032,310.9137,2.7304e-05,1.46e-06,0.0,0 STARLINK-3099,1 49446U 21104AQ  22332.58638095  .00000146  00000-0  27304-4 0  9992,2 49446  53.2158 183.1320 0002040  49.2032 310.9137 15.08839719 59264,6917.880999999999,95.438,541.1569999999998,538.335,0.0
49446.0,STARLINK-3099,PAYLOAD,2022-11-29 07:33:37,15.0884414,0.0002075,53.2159,179.8612,50.035,310.0824,7.955399999999999e-05,9.78e-06,0.0,0 STARLINK-3099,1 49446U 21104AQ  22333.31501581  .00000978  00000-0  79554-4 0  9990,2 49446  53.2159 179.8612 0002075  50.0350 310.0824 15.08844140 58304,6917.868,95.437,541.168,538.297,0.0
